[
    {
        "Altitude(m)": 573363.0040910102,
        "Argument of Periapsis(deg)": -0.022603160782972403,
        "Eccentricity": 0.0,
        "Inclination(deg)": 97.0,
        "Latitude(deg)": -26.481561127991835,
        "Longitude(deg)": -38.85707947837955,
        "Mean Anomaly(deg)": -26.416856730812555,
        "RAAN(deg)": 60.005947053618506,
        "Satellite Name": "Starlink Shell 3 1748",
        "Satellite Number": 1748,
        "Semi-Major Axis(m)": 6938478.169268562,
        "Time(s)": 570
    },
    {
        "Altitude(m)": 573134.6634161026,
        "Argument of Periapsis(deg)": -0.02299970746337543,
        "Eccentricity": 0.0,
        "Inclination(deg)": 97.0,
        "Latitude(deg)": -25.860427198126374,
        "Longitude(deg)": -38.993096464465,
        "Mean Anomaly(deg)": -25.791380533107503,
        "RAAN(deg)": 60.00605138789252,
        "Satellite Name": "Starlink Shell 3 1748",
        "Satellite Number": 1748,
        "Semi-Major Axis(m)": 6938478.169268562,
        "Time(s)": 580
    },
    {
        "Altitude(m)": 572908.561386565,
        "Argument of Periapsis(deg)": -0.023396254143778456,
        "Eccentricity": 0.0,
        "Inclination(deg)": 97.0,
        "Latitude(deg)": -25.239152401210074,
        "Longitude(deg)": -39.1281389076896,
        "Mean Anomaly(deg)": -25.16590433540244,
        "RAAN(deg)": 60.006155722166525,
        "Satellite Name": "Starlink Shell 3 1748",
        "Satellite Number": 1748,
        "Semi-Major Axis(m)": 6938478.169268562,
        "Time(s)": 590
    },
    {
        "Altitude(m)": 572684.7803134245,
        "Argument of Periapsis(deg)": -0.023792800824181483,
        "Eccentricity": 0.0,
        "Inclination(deg)": 97.0,
        "Latitude(deg)": -24.617740054494114,
        "Longitude(deg)": -39.262243363372,
        "Mean Anomaly(deg)": -24.540428137697386,
        "RAAN(deg)": 60.00626005644054,
        "Satellite Name": "Starlink Shell 3 1748",
        "Satellite Number": 1748,
        "Semi-Major Axis(m)": 6938478.169268562,
        "Time(s)": 600
    },
    {
        "Altitude(m)": 572463.4012874567,
        "Argument of Periapsis(deg)": -0.024189347504584503,
        "Eccentricity": 0.0,
        "Inclination(deg)": 97.0,
        "Latitude(deg)": -23.996193438884927,
        "Longitude(deg)": -39.39544523793722,
        "Mean Anomaly(deg)": -23.914951939992385,
        "RAAN(deg)": 60.00636439071455,
        "Satellite Name": "Starlink Shell 3 1748",
        "Satellite Number": 1748,
        "Semi-Major Axis(m)": 6938478.169268562,
        "Time(s)": 610
    },
    {
        "Altitude(m)": 572244.5041421403,
        "Argument of Periapsis(deg)": -0.02458589418498753,
        "Eccentricity": 0.0,
        "Inclination(deg)": 97.0,
        "Latitude(deg)": -23.37451580198935,
        "Longitude(deg)": -39.527778342443625,
        "Mean Anomaly(deg)": -23.28947574228736,
        "RAAN(deg)": 60.00646872498855,
        "Satellite Name": "Starlink Shell 3 1748",
        "Satellite Number": 1748,
        "Semi-Major Axis(m)": 6938478.169268562,
        "Time(s)": 620
    },
    {
        "Altitude(m)": 572028.1674171634,
        "Argument of Periapsis(deg)": -0.024982440865390556,
        "Eccentricity": 0.0,
        "Inclination(deg)": 97.0,
        "Latitude(deg)": -22.75271036095915,
        "Longitude(deg)": -39.65927612411546,
        "Mean Anomaly(deg)": -22.663999544582257,
        "RAAN(deg)": 60.00657305926256,
        "Satellite Name": "Starlink Shell 3 1748",
        "Satellite Number": 1748,
        "Semi-Major Axis(m)": 6938478.169268562,
        "Time(s)": 630
    },
    {
        "Altitude(m)": 571814.468322538,
        "Argument of Periapsis(deg)": -0.025378987545793576,
        "Eccentricity": 0.0,
        "Inclination(deg)": 97.0,
        "Latitude(deg)": -22.130780305142004,
        "Longitude(deg)": -39.78997037364455,
        "Mean Anomaly(deg)": -22.038523346877252,
        "RAAN(deg)": 60.00667739353657,
        "Satellite Name": "Starlink Shell 3 1748",
        "Satellite Number": 1748,
        "Semi-Major Axis(m)": 6938478.169268562,
        "Time(s)": 640
    },
    {
        "Altitude(m)": 571603.4827033853,
        "Argument of Periapsis(deg)": -0.025775534226196602,
        "Eccentricity": 0.0,
        "Inclination(deg)": 97.0,
        "Latitude(deg)": -21.50872879855541,
        "Longitude(deg)": -39.91989245135441,
        "Mean Anomaly(deg)": -21.413047149172147,
        "RAAN(deg)": 60.006781727810576,
        "Satellite Name": "Starlink Shell 3 1748",
        "Satellite Number": 1748,
        "Semi-Major Axis(m)": 6938478.169268562,
        "Time(s)": 650
    },
    {
        "Altitude(m)": 571395.2850053104,
        "Argument of Periapsis(deg)": -0.026172080906599626,
        "Eccentricity": 0.0,
        "Inclination(deg)": 97.0,
        "Latitude(deg)": -20.886558982191648,
        "Longitude(deg)": -40.04907282996323,
        "Mean Anomaly(deg)": -20.78757095146714,
        "RAAN(deg)": 60.00688606208459,
        "Satellite Name": "Starlink Shell 3 1748",
        "Satellite Number": 1748,
        "Semi-Major Axis(m)": 6938478.169268562,
        "Time(s)": 660
    },
    {
        "Altitude(m)": 571189.948240483,
        "Argument of Periapsis(deg)": -0.026568627587002652,
        "Eccentricity": 0.0,
        "Inclination(deg)": 97.0,
        "Latitude(deg)": -20.264273976162556,
        "Longitude(deg)": -40.17754063507426,
        "Mean Anomaly(deg)": -20.162094753762137,
        "RAAN(deg)": 60.0069903963586,
        "Satellite Name": "Starlink Shell 3 1748",
        "Satellite Number": 1748,
        "Semi-Major Axis(m)": 6938478.169268562,
        "Time(s)": 670
    },
    {
        "Altitude(m)": 570987.5439544062,
        "Argument of Periapsis(deg)": -0.02696517426740568,
        "Eccentricity": 0.0,
        "Inclination(deg)": 97.0,
        "Latitude(deg)": -19.64187688169853,
        "Longitude(deg)": -40.3053246964108,
        "Mean Anomaly(deg)": -19.536618556057068,
        "RAAN(deg)": 60.0070947306326,
        "Satellite Name": "Starlink Shell 3 1748",
        "Satellite Number": 1748,
        "Semi-Major Axis(m)": 6938478.169268562,
        "Time(s)": 680
    },
    {
        "Altitude(m)": 570788.142193373,
        "Argument of Periapsis(deg)": -0.0273617209478087,
        "Eccentricity": 0.0,
        "Inclination(deg)": 97.0,
        "Latitude(deg)": -19.019370783004753,
        "Longitude(deg)": -40.432453084183734,
        "Mean Anomaly(deg)": -18.911142358352016,
        "RAAN(deg)": 60.00719906490661,
        "Satellite Name": "Starlink Shell 3 1748",
        "Satellite Number": 1748,
        "Semi-Major Axis(m)": 6938478.169268562,
        "Time(s)": 690
    },
    {
        "Altitude(m)": 570591.8114726373,
        "Argument of Periapsis(deg)": -0.027758267628211725,
        "Eccentricity": 0.0,
        "Inclination(deg)": 97.0,
        "Latitude(deg)": -18.396758748985363,
        "Longitude(deg)": -40.558952643592214,
        "Mean Anomaly(deg)": -18.285666160646954,
        "RAAN(deg)": 60.00730339918062,
        "Satellite Name": "Starlink Shell 3 1748",
        "Satellite Number": 1748,
        "Semi-Major Axis(m)": 6938478.169268562,
        "Time(s)": 700
    },
    {
        "Altitude(m)": 570398.6187453734,
        "Argument of Periapsis(deg)": -0.028154814308614752,
        "Eccentricity": 0.0,
        "Inclination(deg)": 97.0,
        "Latitude(deg)": -17.77404383484536,
        "Longitude(deg)": -40.68485004044961,
        "Mean Anomaly(deg)": -17.660189962941953,
        "RAAN(deg)": 60.007407733454635,
        "Satellite Name": "Starlink Shell 3 1748",
        "Satellite Number": 1748,
        "Semi-Major Axis(m)": 6938478.169268562,
        "Time(s)": 710
    },
    {
        "Altitude(m)": 570208.6293723421,
        "Argument of Periapsis(deg)": -0.02855136098901778,
        "Eccentricity": 0.0,
        "Inclination(deg)": 97.0,
        "Latitude(deg)": -17.151229083573412,
        "Longitude(deg)": -40.810171292297326,
        "Mean Anomaly(deg)": -17.034713765236894,
        "RAAN(deg)": 60.00751206772864,
        "Satellite Name": "Starlink Shell 3 1748",
        "Satellite Number": 1748,
        "Semi-Major Axis(m)": 6938478.169268562,
        "Time(s)": 720
    },
    {
        "Altitude(m)": 570021.9070923505,
        "Argument of Periapsis(deg)": -0.028947907669420805,
        "Eccentricity": 0.0,
        "Inclination(deg)": 97.0,
        "Latitude(deg)": -16.52831752731489,
        "Longitude(deg)": -40.93494129798517,
        "Mean Anomaly(deg)": -16.409237567531843,
        "RAAN(deg)": 60.007616402002654,
        "Satellite Name": "Starlink Shell 3 1748",
        "Satellite Number": 1748,
        "Semi-Major Axis(m)": 6938478.169268562,
        "Time(s)": 730
    },
    {
        "Altitude(m)": 569838.5139935387,
        "Argument of Periapsis(deg)": -0.029344454349823825,
        "Eccentricity": 0.0,
        "Inclination(deg)": 97.0,
        "Latitude(deg)": -15.905312188642581,
        "Longitude(deg)": -41.05918487868909,
        "Mean Anomaly(deg)": -15.783761369826772,
        "RAAN(deg)": 60.00772073627665,
        "Satellite Name": "Starlink Shell 3 1748",
        "Satellite Number": 1748,
        "Semi-Major Axis(m)": 6938478.169268562,
        "Time(s)": 740
    },
    {
        "Altitude(m)": 569658.5104854086,
        "Argument of Periapsis(deg)": -0.029741001030226845,
        "Eccentricity": 0.0,
        "Inclination(deg)": 97.0,
        "Latitude(deg)": -15.282216081728222,
        "Longitude(deg)": -41.182926304710314,
        "Mean Anomaly(deg)": -15.158285172121719,
        "RAAN(deg)": 60.007825070550666,
        "Satellite Name": "Starlink Shell 3 1748",
        "Satellite Number": 1748,
        "Semi-Major Axis(m)": 6938478.169268562,
        "Time(s)": 750
    }
]